XRISM                   
1 57800U 23137A   23328.12315279  .00006025  00000+0  48265-3 0  9994
2 57800  31.0035 241.6125 0010387 326.8775  33.1209 14.98691042 11725
